NORAD_CAT_ID,OBJECT_NAME,OBJECT_TYPE,EPOCH,MEAN_MOTION,ECCENTRICITY,INCLINATION,RA_OF_ASC_NODE,ARG_OF_PERICENTER,MEAN_ANOMALY,BSTAR,MEAN_MOTION_DOT,MEAN_MOTION_DDOT,TLE_LINE0,TLE_LINE1,TLE_LINE2,SEMIMAJOR_AXIS,PERIOD,APOGEE,PERIGEE,DECAYED
55933.0,STARLINK-5852,PAYLOAD,2023-05-04 21:27:03,15.69927962,0.0003376,70.0024,45.7683,251.8529,108.2299,3.0501e-05,3.457e-05,0.0,0 STARLINK-5852,1 55933U 23037V   23124.89379443  .00003457  00000-0  30501-4 0  9991,2 55933  70.0024  45.7683 0003376 251.8529 108.2299 15.69927962  8087,6737.24,91.724,361.38,356.831,0.0
55933.0,STARLINK-5852,PAYLOAD,2023-05-05 20:23:20,15.69925543,0.0003672,70.0014,43.0813,262.3413,97.7365,1.4657e-05,1.55e-05,0.0,0 STARLINK-5852,1 55933U 23037V   23125.84954456  .00001550  00000-0  14657-4 0  9996,2 55933  70.0014  43.0813 0003672 262.3413  97.7365 15.69925543  7897,6737.247,91.724,361.586,356.638,0.0
55933.0,STARLINK-5852,PAYLOAD,2023-05-05 21:55:05,15.69925555,0.0003635,70.0016,42.9022,262.3621,97.7162,1.498e-05,1.589e-05,0.0,0 STARLINK-5852,1 55933U 23037V   23125.91326150  .00001589  00000-0  14980-4 0  9999,2 55933  70.0016  42.9022 0003635 262.3621  97.7162 15.69925555  8247,6737.247,91.724,361.561,356.663,0.0
55933.0,STARLINK-5852,PAYLOAD,2023-05-06 04:02:06,15.69926974,0.0003686,70.0009,42.1854,262.4682,97.6095,1.6264e-05,1.743e-05,0.0,0 STARLINK-5852,1 55933U 23037V   23126.16812769  .00001743  00000-0  16264-4 0  9992,2 55933  70.0009  42.1854 0003686 262.4682  97.6095 15.69926974  7944,6737.243,91.724,361.591,356.625,0.0
55933.0,STARLINK-5852,PAYLOAD,2023-05-07 04:30:08,15.69925913,0.0004198,70.001,39.3182,272.5771,87.4944,3.5933e-06,2.19e-06,0.0,0 STARLINK-5852,1 55933U 23037V   23127.18759325  .00000219  00000-0  35933-5 0  9995,2 55933  70.0010  39.3182 0004198 272.5771  87.4944 15.69925913  8446,6737.246,91.724,361.939,356.283,0.0
55933.0,STARLINK-5852,PAYLOAD,2023-05-07 21:19:25,15.69914783,0.0004326,70.0002,37.3481,272.8994,87.1707,5.6678e-07,-1.45e-06,0.0,0 STARLINK-5852,1 55933U 23037V   23127.88848488 -.00000145  00000-0  56678-6 0  9990,2 55933  70.0002  37.3481 0004326 272.8994  87.1707 15.69914783  8559,6737.278,91.725,362.057,356.228,0.0
55933.0,STARLINK-5852,PAYLOAD,2023-05-08 03:26:24,15.69929913,0.0003629,69.9985,36.6336,260.1492,99.9294,1.6137e-05,1.728e-05,0.0,0 STARLINK-5852,1 55933U 23037V   23128.14334331  .00001728  00000-0  16137-4 0  9998,2 55933  69.9985  36.6336 0003629 260.1492  99.9294 15.69929913  8592,6737.235,91.724,361.544,356.655,0.0
55933.0,STARLINK-5852,PAYLOAD,2023-05-08 20:15:42,15.699146,0.0003526,69.9987,34.6633,266.7057,93.3735,1.37e-05,1.434e-05,0.0,0 STARLINK-5852,1 55933U 23037V   23128.84423682  .00001434  00000-0  13700-4 0  9990,2 55933  69.9987  34.6633 0003526 266.7057  93.3735 15.69914600  8705,6737.278,91.725,361.519,356.768,0.0
55933.0,STARLINK-5852,PAYLOAD,2023-05-09 03:54:27,15.69925442,0.0003647,69.9995,33.766,265.8458,94.2321,2.2688e-05,2.516e-05,0.0,0 STARLINK-5852,1 55933U 23037V   23129.16281254  .00002516  00000-0  22688-4 0  9990,2 55933  69.9995  33.7660 0003647 265.8458  94.2321 15.69925442  8755,6737.247,91.724,361.569,356.655,0.0
55933.0,STARLINK-5852,PAYLOAD,2023-05-10 02:50:44,15.69928272,0.0003599,69.999,31.0794,264.2897,95.7889,7.9602e-06,7.45e-06,0.0,0 STARLINK-5852,1 55933U 23037V   23130.11856568  .00000745  00000-0  79602-5 0  9994,2 55933  69.9990  31.0794 0003599 264.2897  95.7889 15.69928272  8563,6737.239,91.724,361.529,356.679,0.0
55933.0,STARLINK-5852,PAYLOAD,2023-05-10 19:40:00,15.69924151,0.0003595,69.999,29.1076,263.7971,96.2816,1.8323e-05,1.991e-05,0.0,0 STARLINK-5852,1 55933U 23037V   23130.81944959  .00001991  00000-0  18323-4 0  9999,2 55933  69.9990  29.1076 0003595 263.7971  96.2816 15.69924151  8677,6737.251,91.724,361.538,356.694,0.0
55933.0,STARLINK-5852,PAYLOAD,2023-05-11 03:18:45,15.69928778,0.0003602,69.9993,28.2115,263.6458,96.4328,1.3277e-05,1.384e-05,0.0,0 STARLINK-5852,1 55933U 23037V   23131.13803137  .00001384  00000-0  13277-4 0  9996,2 55933  69.9993  28.2115 0003602 263.6458  96.4328 15.69928778  8727,6737.238,91.724,361.53,356.676,0.0
55933.0,STARLINK-5852,PAYLOAD,2023-05-12 02:15:02,15.69934574,0.0003752,69.9986,25.5265,268.6178,91.4588,1.9716e-05,2.159e-05,0.0,0 STARLINK-5852,1 55933U 23037V   23132.09377983  .00002159  00000-0  19716-4 0  9992,2 55933  69.9986  25.5265 0003752 268.6178  91.4588 15.69934574  8875,6737.221,91.724,361.614,356.558,0.0
55933.0,STARLINK-5852,PAYLOAD,2023-05-12 17:32:34,15.69928778,0.0003525,69.9992,23.735,268.4991,91.5801,1.5569e-06,-2.6e-07,0.0,0 STARLINK-5852,1 55933U 23037V   23132.73095309 -.00000026  00000-0  15569-5 0  9997,2 55933  69.9992  23.7350 0003525 268.4991  91.5801 15.69928778  9314,6737.238,91.724,361.478,356.728,0.0
55933.0,STARLINK-5852,PAYLOAD,2023-05-13 02:43:06,15.69913685,0.000309,69.9986,22.6574,270.9115,89.1727,-8.5438e-06,-1.239e-05,0.0,0 STARLINK-5852,1 55933U 23037V   23133.11326390 -.00001239  00000-0 -85438-5 0  9997,2 55933  69.9986  22.6574 0003090 270.9115  89.1727 15.69913685  9373,6737.281,91.725,361.228,357.064,0.0
55933.0,STARLINK-5852,PAYLOAD,2023-05-13 05:46:36,15.6991298,0.0003091,69.9983,22.301,258.9446,101.1402,1.209e-06,-6.7e-07,0.0,0 STARLINK-5852,1 55933U 23037V   23133.24069605 -.00000067  00000-0  12090-5 0  9995,2 55933  69.9983  22.3010 0003091 258.9446 101.1402 15.69912980  9053,6737.283,91.725,361.23,357.065,0.0
55933.0,STARLINK-5852,PAYLOAD,2023-05-13 19:32:22,15.69921757,0.0003522,69.9984,20.6886,261.7247,98.3549,-1.005e-05,-1.421e-05,0.0,0 STARLINK-5852,1 55933U 23037V   23133.81414629 -.00001421  00000-0 -10050-4 0  9997,2 55933  69.9984  20.6886 0003522 261.7247  98.3549 15.69921757  9147,6737.258,91.724,361.496,356.75,0.0
55933.0,STARLINK-5852,PAYLOAD,2023-05-14 01:39:23,15.69892212,0.0002834,69.9984,19.9716,251.4457,108.6431,8.3958e-05,9.88e-05,0.0,0 STARLINK-5852,1 55933U 23037V   23134.06901790  .00009880  00000-0  83958-4 0  9997,2 55933  69.9984  19.9716 0002834 251.4457 108.6431 15.69892212  9186,6737.342,91.726,361.117,357.298,0.0
55933.0,STARLINK-5852,PAYLOAD,2023-05-14 20:00:24,15.69914552,0.0002693,70.0003,17.8236,255.0184,105.0713,-7.2434e-06,-1.083e-05,0.0,0 STARLINK-5852,1 55933U 23037V   23134.83361733 -.00001083  00000-0 -72434-5 0  9996,2 55933  70.0003  17.8236 0002693 255.0184 105.0713 15.69914552  9305,6737.278,91.725,360.958,357.329,0.0
55933.0,STARLINK-5852,PAYLOAD,2023-05-15 00:35:39,15.6992743,0.0002966,69.9999,17.2894,246.4779,113.6105,3.1976e-06,1.72e-06,0.0,0 STARLINK-5852,1 55933U 23037V   23135.02475806  .00000172  00000-0  31976-5 0  9997,2 55933  69.9999  17.2894 0002966 246.4779 113.6105 15.69927430  9676,6737.242,91.724,361.105,357.108,0.0
55933.0,STARLINK-5852,PAYLOAD,2023-05-15 09:46:10,15.69918361,0.0003238,69.9988,16.2107,261.4815,98.6014,1.9515e-05,2.134e-05,0.0,0 STARLINK-5852,1 55933U 23037V   23135.40706023  .00002134  00000-0  19515-4 0  9991,2 55933  69.9988  16.2107 0003238 261.4815  98.6014 15.69918361  9394,6737.268,91.725,361.314,356.951,0.0
55933.0,STARLINK-5852,PAYLOAD,2023-05-15 17:24:55,15.69917562,0.000328,69.9995,15.3131,253.5776,106.5059,1.3219e-05,1.377e-05,0.0,0 STARLINK-5852,1 55933U 23037V   23135.72564615  .00001377  00000-0  13219-4 0  9998,2 55933  69.9995  15.3131 0003280 253.5776 106.5059 15.69917562  9787,6737.27,91.725,361.345,356.925,0.0
55933.0,STARLINK-5852,PAYLOAD,2023-05-16 01:03:40,15.69927351,0.000319,69.9994,14.4172,249.9475,110.1377,1.1659e-05,1.19e-05,0.0,0 STARLINK-5852,1 55933U 23037V   23136.04422434  .00001190  00000-0  11659-4 0  9995,2 55933  69.9994  14.4172 0003190 249.9475 110.1377 15.69927351  9833,6737.242,91.724,361.256,356.958,0.0
55933.0,STARLINK-5852,PAYLOAD,2023-05-16 14:49:27,15.69923655,0.0002877,70.0,12.8046,246.2685,113.8209,1.2734e-05,1.319e-05,0.0,0 STARLINK-5852,1 55933U 23037V   23136.61767641  .00001319  00000-0  12734-4 0  9998,2 55933  70.0000  12.8046 0002877 246.2685 113.8209 15.69923655  9589,6737.252,91.724,361.056,357.179,0.0
55933.0,STARLINK-5852,PAYLOAD,2023-05-16 22:28:12,15.69924224,0.0002654,69.9998,11.9109,251.896,108.1946,2.6619e-05,2.989e-05,0.0,0 STARLINK-5852,1 55933U 23037V   23136.93625757  .00002989  00000-0  26619-4 0  9995,2 55933  69.9998  11.9109 0002654 251.8960 108.1946 15.69924224  9637,6737.251,91.724,360.904,357.328,0.0
55933.0,STARLINK-5852,PAYLOAD,2023-05-17 01:31:44,15.69899504,0.0002547,70.0,11.553,252.3191,107.7727,-1.7288e-06,-4.2e-06,0.0,0 STARLINK-5852,1 55933U 23037V   23137.06371215 -.00000420  00000-0 -17288-5 0  9990,2 55933  70.0000  11.5530 0002547 252.3191 107.7727 15.69899504  9994,6737.322,91.726,360.903,357.471,0.0
55933.0,STARLINK-5852,PAYLOAD,2023-05-17 18:20:59,15.69920814,0.0003655,69.9974,9.5811,259.6622,100.4162,1.5701e-05,1.675e-05,0.0,0 STARLINK-5852,1 55933U 23037V   23137.76457827  .00001675  00000-0  15701-4 0  9999,2 55933  69.9974   9.5811 0003655 259.6622 100.4162 15.69920814 10107,6737.261,91.724,361.588,356.663,0.0
55933.0,STARLINK-5852,PAYLOAD,2023-05-18 01:59:44,15.69929227,0.0003481,69.9978,8.687,258.6615,101.4189,1.3436e-05,1.403e-05,0.0,0 STARLINK-5852,1 55933U 23037V   23138.08315746  .00001403  00000-0  13436-4 0  9990,2 55933  69.9978   8.6870 0003481 258.6615 101.4189 15.69929227 10156,6737.236,91.724,361.447,356.756,0.0
55933.0,STARLINK-5852,PAYLOAD,2023-05-19 00:56:01,15.6992718,0.0003593,69.9976,5.9989,259.9462,100.1329,7.5324e-06,6.93e-06,0.0,0 STARLINK-5852,1 55933U 23037V   23139.03890925  .00000693  00000-0  75324-5 0  9998,2 55933  69.9976   5.9989 0003593 259.9462 100.1329 15.69927180 10308,6737.242,91.724,361.528,356.687,0.0
55933.0,STARLINK-5852,PAYLOAD,2023-05-20 01:24:03,15.6992438,0.0003325,69.9984,3.1325,264.6998,95.3818,1.1356e-05,1.153e-05,0.0,0 STARLINK-5852,1 55933U 23037V   23140.05837936  .00001153  00000-0  11356-4 0  9991,2 55933  69.9984   3.1325 0003325 264.6998  95.3818 15.69924380 10465,6737.25,91.724,361.355,356.875,0.0
